{
  "type": "FeatureCollection",
  "features": [
    {
      "type": "Feature",
      "properties": {
        "norad_id": 34314,
        "name": "COSMOS 2251 DEB",
        "group": "cosmos-2251-debris",
        "lat": 59.99852797816693,
        "lon": -21.764939950066374,
        "alt_km": 754.916107736025,
        "timestamp": "2025-12-12T16:50:33.540420+00:00",
        "meta_object_name": "COSMOS 2251 DEB",
        "meta_object_id": "1993-036NL",
        "meta_epoch": "2025-12-12T06:57:03.618144",
        "meta_mean_motion": 14.17422782,
        "meta_eccentricity": 0.01027732,
        "meta_inclination": 74.0067,
        "meta_ra_of_asc_node": 309.1867,
        "meta_arg_of_pericenter": 54.9413,
        "meta_mean_anomaly": 66.9088,
        "meta_ephemeris_type": 0,
        "meta_classification_type": "U",
        "meta_norad_cat_id": 34314,
        "meta_element_set_no": 999,
        "meta_rev_at_epoch": 86651,
        "meta_bstar": 0.00086241723,
        "meta_mean_motion_dot": 1.816e-05,
        "meta_mean_motion_ddot": 0,
        "tle_line1": "1 34314U 93036NL  25346.28962521  .00001816  00000+0  86242-3 0  9991",
        "tle_line2": "2 34314  74.0067 309.1867 0102773  54.9413  66.9088 14.17422782866512"
      },
      "geometry": {
        "type": "Point",
        "coordinates": [
          -21.764939950066374,
          59.99852797816693
        ]
      }
    },
    {
      "type": "Feature",
      "properties": {
        "norad_id": 34316,
        "name": "COSMOS 2251 DEB",
        "group": "cosmos-2251-debris",
        "lat": -60.999668825789186,
        "lon": -172.00899456348534,
        "alt_km": 604.7993340118746,
        "timestamp": "2025-12-12T16:50:33.540430+00:00",
        "meta_object_name": "COSMOS 2251 DEB",
        "meta_object_id": "1993-036NN",
        "meta_epoch": "2025-12-12T06:05:22.841376",
        "meta_mean_motion": 14.91808593,
        "meta_eccentricity": 0.0008283,
        "meta_inclination": 74.0653,
        "meta_ra_of_asc_node": 337.8624,
        "meta_arg_of_pericenter": 62.1319,
        "meta_mean_anomaly": 298.0701,
        "meta_ephemeris_type": 0,
        "meta_classification_type": "U",
        "meta_norad_cat_id": 34316,
        "meta_element_set_no": 999,
        "meta_rev_at_epoch": 89202,
        "meta_bstar": 0.0023854293,
        "meta_mean_motion_dot": 0.00024134,
        "meta_mean_motion_ddot": 0,
        "tle_line1": "1 34316U 93036NN  25346.25373659  .00024134  00000+0  23854-2 0  9995",
        "tle_line2": "2 34316  74.0653 337.8624 0008283  62.1319 298.0701 14.91808593892026"
      },
      "geometry": {
        "type": "Point",
        "coordinates": [
          -172.00899456348534,
          -60.999668825789186
        ]
      }
    },
    {
      "type": "Feature",
      "properties": {
        "norad_id": 34317,
        "name": "COSMOS 2251 DEB",
        "group": "cosmos-2251-debris",
        "lat": 6.9362541097538735,
        "lon": 37.83160827309741,
        "alt_km": 780.9482615146135,
        "timestamp": "2025-12-12T16:50:33.540441+00:00",
        "meta_object_name": "COSMOS 2251 DEB",
        "meta_object_id": "1993-036NP",
        "meta_epoch": "2025-12-11T12:59:37.182048",
        "meta_mean_motion": 13.65120292,
        "meta_eccentricity": 0.03364777,
        "meta_inclination": 73.9247,
        "meta_ra_of_asc_node": 37.7308,
        "meta_arg_of_pericenter": 27.2247,
        "meta_mean_anomaly": 40.7995,
        "meta_ephemeris_type": 0,
        "meta_classification_type": "U",
        "meta_norad_cat_id": 34317,
        "meta_element_set_no": 999,
        "meta_rev_at_epoch": 83603,
        "meta_bstar": 0.00055497737,
        "meta_mean_motion_dot": 6.4e-06,
        "meta_mean_motion_ddot": 0,
        "tle_line1": "1 34317U 93036NP  25345.54140257  .00000640  00000+0  55498-3 0  9999",
        "tle_line2": "2 34317  73.9247  37.7308 0336477  27.2247  40.7995 13.65120292836039"
      },
      "geometry": {
        "type": "Point",
        "coordinates": [
          37.83160827309741,
          6.9362541097538735
        ]
      }
    },
    {
      "type": "Feature",
      "properties": {
        "norad_id": 34321,
        "name": "COSMOS 2251 DEB",
        "group": "cosmos-2251-debris",
        "lat": 38.51138974590958,
        "lon": 169.60713350520814,
        "alt_km": 726.8857480307652,
        "timestamp": "2025-12-12T16:50:33.540451+00:00",
        "meta_object_name": "COSMOS 2251 DEB",
        "meta_object_id": "1993-036NT",
        "meta_epoch": "2025-12-12T05:53:33.900000",
        "meta_mean_motion": 14.50052544,
        "meta_eccentricity": 0.00158285,
        "meta_inclination": 74.0281,
        "meta_ra_of_asc_node": 157.2901,
        "meta_arg_of_pericenter": 286.912,
        "meta_mean_anomaly": 252.6517,
        "meta_ephemeris_type": 0,
        "meta_classification_type": "U",
        "meta_norad_cat_id": 34321,
        "meta_element_set_no": 999,
        "meta_rev_at_epoch": 88479,
        "meta_bstar": 0.00095066537,
        "meta_mean_motion_dot": 3.666e-05,
        "meta_mean_motion_ddot": 0,
        "tle_line1": "1 34321U 93036NT  25346.24553125  .00003666  00000+0  95067-3 0  9991",
        "tle_line2": "2 34321  74.0281 157.2901 0015828 286.9120 252.6517 14.50052544884798"
      },
      "geometry": {
        "type": "Point",
        "coordinates": [
          169.60713350520814,
          38.51138974590958
        ]
      }
    },
    {
      "type": "Feature",
      "properties": {
        "norad_id": 34323,
        "name": "COSMOS 2251 DEB",
        "group": "cosmos-2251-debris",
        "lat": 48.89479841286074,
        "lon": 142.45098045723765,
        "alt_km": 659.966567984532,
        "timestamp": "2025-12-12T16:50:33.540462+00:00",
        "meta_object_name": "COSMOS 2251 DEB",
        "meta_object_id": "1993-036NV",
        "meta_epoch": "2025-12-11T19:57:45.459360",
        "meta_mean_motion": 14.7438175,
        "meta_eccentricity": 0.00592404,
        "meta_inclination": 73.9526,
        "meta_ra_of_asc_node": 124.8955,
        "meta_arg_of_pericenter": 169.1783,
        "meta_mean_anomaly": 307.2127,
        "meta_ephemeris_type": 0,
        "meta_classification_type": "U",
        "meta_norad_cat_id": 34323,
        "meta_element_set_no": 999,
        "meta_rev_at_epoch": 88426,
        "meta_bstar": 0.0037400121,
        "meta_mean_motion_dot": 0.00025575,
        "meta_mean_motion_ddot": 0,
        "tle_line1": "1 34323U 93036NV  25345.83177615  .00025575  00000+0  37400-2 0  9992",
        "tle_line2": "2 34323  73.9526 124.8955 0059240 169.1783 307.2127 14.74381750884268"
      },
      "geometry": {
        "type": "Point",
        "coordinates": [
          142.45098045723765,
          48.89479841286074
        ]
      }
    },
    {
      "type": "Feature",
      "properties": {
        "norad_id": 34325,
        "name": "COSMOS 2251 DEB",
        "group": "cosmos-2251-debris",
        "lat": -71.67489107069673,
        "lon": 131.98642621974838,
        "alt_km": 832.091628954664,
        "timestamp": "2025-12-12T16:50:33.540472+00:00",
        "meta_object_name": "COSMOS 2251 DEB",
        "meta_object_id": "1993-036NX",
        "meta_epoch": "2025-12-12T07:49:44.385024",
        "meta_mean_motion": 14.04468864,
        "meta_eccentricity": 0.01922779,
        "meta_inclination": 73.8711,
        "meta_ra_of_asc_node": 193.5358,
        "meta_arg_of_pericenter": 210.9368,
        "meta_mean_anomaly": 327.6615,
        "meta_ephemeris_type": 0,
        "meta_classification_type": "U",
        "meta_norad_cat_id": 34325,
        "meta_element_set_no": 999,
        "meta_rev_at_epoch": 85509,
        "meta_bstar": 0.0026068565,
        "meta_mean_motion_dot": 4.879e-05,
        "meta_mean_motion_ddot": 0,
        "tle_line1": "1 34325U 93036NX  25346.32620816  .00004879  00000+0  26069-2 0  9998",
        "tle_line2": "2 34325  73.8711 193.5358 0192277 210.9368 327.6615 14.04468864855099"
      },
      "geometry": {
        "type": "Point",
        "coordinates": [
          131.98642621974838,
          -71.67489107069673
        ]
      }
    },
    {
      "type": "Feature",
      "properties": {
        "norad_id": 34327,
        "name": "COSMOS 2251 DEB",
        "group": "cosmos-2251-debris",
        "lat": 71.62703319097103,
        "lon": -128.23716767516424,
        "alt_km": 594.2041462781262,
        "timestamp": "2025-12-12T16:50:33.540483+00:00",
        "meta_object_name": "COSMOS 2251 DEB",
        "meta_object_id": "1993-036NZ",
        "meta_epoch": "2025-12-11T23:25:20.654400",
        "meta_mean_motion": 14.89153963,
        "meta_eccentricity": 0.003277,
        "meta_inclination": 73.9936,
        "meta_ra_of_asc_node": 173.4137,
        "meta_arg_of_pericenter": 349.9103,
        "meta_mean_anomaly": 160.9987,
        "meta_ephemeris_type": 0,
        "meta_classification_type": "U",
        "meta_norad_cat_id": 34327,
        "meta_element_set_no": 999,
        "meta_rev_at_epoch": 89496,
        "meta_bstar": 0.0018668,
        "meta_mean_motion_dot": 0.00017817,
        "meta_mean_motion_ddot": 0,
        "tle_line1": "1 34327U 93036NZ  25345.97593350  .00017817  00000+0  18668-2 0  9994",
        "tle_line2": "2 34327  73.9936 173.4137 0032770 349.9103 160.9987 14.89153963894967"
      },
      "geometry": {
        "type": "Point",
        "coordinates": [
          -128.23716767516424,
          71.62703319097103
        ]
      }
    }
  ]
}